43249,IRIDIUM 144,2018,100.4,860.0,+,86.39,Active,1,LEO,USA,USA,Commercial/Government,Communications,Falcon,1 43249U 18030A   24062.63628836  .00000019  00000+0 -32118-6 0  9991,2 43249  86.3922 280.0205 0002116  89.5543 270.5896 14.34217561310235,14.34217561,0.0002116,LEO
43250,IRIDIUM 149,2018,100.4,860.0,+,86.39,Active,1,LEO,USA,USA,Commercial/Government,Communications,Falcon,1 43250U 18030B   24062.64264025  .00000322  00000+0  10781-3 0  9995,2 43250  86.3922 279.9939 0002262  88.5739 271.5716 14.34217451310258,14.34217451,0.0002262,LEO
43251,IRIDIUM 157,2018,100.4,860.0,+,86.39,Active,1,LEO,USA,USA,Commercial/Government,Communications,Falcon,1 43251U 18030C   24063.15003368  .00000315  00000+0  10557-3 0  9997,2 43251  86.3922 279.8164 0001895  83.0589 277.0823 14.34219887310303,14.34219887,0.0001895,LEO
43252,IRIDIUM 140,2018,100.4,860.0,+,86.39,Active,1,LEO,USA,USA,Commercial/Government,Communications,Falcon,1 43252U 18030D   24062.68068607  .00000403  00000+0  13668-3 0  9996,2 43252  86.3923 280.0273 0002301  97.2805 262.8652 14.34218297310295,14.34218297,0.0002301,LEO
43253,IRIDIUM 145,2018,100.4,860.0,+,86.39,Active,1,LEO,USA,USA,Commercial/Government,Communications,Falcon,1 43253U 18030E   24063.08660948  .00000239  00000+0  78354-4 0  9999,2 43253  86.3922 279.8316 0002419  89.9764 270.1709 14.34220332310288,14.34220332,0.0002419,LEO
43254,IRIDIUM 146,2018,100.4,860.0,+,86.39,Active,1,LEO,USA,USA,Commercial/Government,Communications,Falcon,1 43254U 18030F   24063.13735739  .00000315  00000+0  10531-3 0  9994,2 43254  86.3922 279.8256 0002405  90.3201 269.8270 14.34218693310307,14.34218693,0.0002405,LEO
43255,IRIDIUM 148,2018,100.4,860.0,+,86.39,Active,1,LEO,USA,USA,Commercial/Government,Communications,Falcon,1 43255U 18030G   24062.68703057  .00000037  00000+0  61438-5 0  9997,2 43255  86.3923 280.0445 0002305  82.1122 278.0335 14.34217616310277,14.34217616,0.0002305,LEO
43256,IRIDIUM 142,2018,100.4,860.0,+,86.39,Active,1,LEO,USA,USA,Commercial/Government,Communications,Falcon,1 43256U 18030H   24062.65531411  .00000221  00000+0  71676-4 0  9997,2 43256  86.3919 279.9770 0002319  87.3612 272.7849 14.34219023310238,14.34219023,0.0002319,LEO
